[
  {
    "OBJECT_NAME": "STARLINK-34487",
    "OBJECT_ID": "25129F",
    "EPOCH": "2025-11-11T06:42:03.989376",
    "MEAN_MOTION": 14.98333982,
    "ECCENTRICITY": 0.0003132,
    "INCLINATION": 70.0021,
    "RA_OF_ASC_NODE": 12.8891,
    "ARG_OF_PERICENTER": 273.5635,
    "MEAN_ANOMALY": 86.5166,
    "EPHEMERIS_TYPE": 0,
    "CLASSIFICATION_TYPE": "U",
    "NORAD_CAT_ID": 64417,
    "ELEMENT_SET_NO": 999,
    "REV_AT_EPOCH": 2349,
    "BSTAR": 0.00034485,
    "MEAN_MOTION_DOT": 4.025e-05,
    "MEAN_MOTION_DDOT": 0.0,
    "TLE_LINE1": "1 64417U 25129F   25315.27921284  .00004025  00000+0  34485-3 0  9999",
    "TLE_LINE2": "2 64417  70.0021  12.8891 0003132 273.5635  86.5166 14.98333982 23493",
    "COMMENT": "Grouped by shell and plane from TLE"
  },
  {
    "OBJECT_NAME": "STARLINK-34461",
    "OBJECT_ID": "25129G",
    "EPOCH": "2025-11-11T06:18:17.561664",
    "MEAN_MOTION": 14.98339791,
    "ECCENTRICITY": 0.0002905,
    "INCLINATION": 70.0023,
    "RA_OF_ASC_NODE": 13.2327,
    "ARG_OF_PERICENTER": 271.9792,
    "MEAN_ANOMALY": 88.1035,
    "EPHEMERIS_TYPE": 0,
    "CLASSIFICATION_TYPE": "U",
    "NORAD_CAT_ID": 64418,
    "ELEMENT_SET_NO": 999,
    "REV_AT_EPOCH": 2354,
    "BSTAR": 0.00026353,
    "MEAN_MOTION_DOT": 3.054e-05,
    "MEAN_MOTION_DDOT": 0.0,
    "TLE_LINE1": "1 64418U 25129G   25315.26270326  .00003054  00000+0  26353-3 0  9999",
    "TLE_LINE2": "2 64418  70.0023  13.2327 0002905 271.9792  88.1035 14.98339791 23541",
    "COMMENT": "Grouped by shell and plane from TLE"
  },
  {
    "OBJECT_NAME": "STARLINK-34512",
    "OBJECT_ID": "25129H",
    "EPOCH": "2025-11-11T07:36:09.766080",
    "MEAN_MOTION": 14.98339019,
    "ECCENTRICITY": 0.0003036,
    "INCLINATION": 70.0027,
    "RA_OF_ASC_NODE": 13.016,
    "ARG_OF_PERICENTER": 266.5112,
    "MEAN_ANOMALY": 93.5699,
    "EPHEMERIS_TYPE": 0,
    "CLASSIFICATION_TYPE": "U",
    "NORAD_CAT_ID": 64419,
    "ELEMENT_SET_NO": 999,
    "REV_AT_EPOCH": 2349,
    "BSTAR": 0.00051972,
    "MEAN_MOTION_DOT": 6.115e-05,
    "MEAN_MOTION_DDOT": 0.0,
    "TLE_LINE1": "1 64419U 25129H   25315.31677970  .00006115  00000+0  51972-3 0  9998",
    "TLE_LINE2": "2 64419  70.0027  13.0160 0003036 266.5112  93.5699 14.98339019 23494",
    "COMMENT": "Grouped by shell and plane from TLE"
  },
  {
    "OBJECT_NAME": "STARLINK-34503",
    "OBJECT_ID": "25129J",
    "EPOCH": "2025-11-11T04:30:08.411904",
    "MEAN_MOTION": 14.98341456,
    "ECCENTRICITY": 0.0003079,
    "INCLINATION": 70.0022,
    "RA_OF_ASC_NODE": 13.371,
    "ARG_OF_PERICENTER": 273.0993,
    "MEAN_ANOMALY": 86.9813,
    "EPHEMERIS_TYPE": 0,
    "CLASSIFICATION_TYPE": "U",
    "NORAD_CAT_ID": 64420,
    "ELEMENT_SET_NO": 999,
    "REV_AT_EPOCH": 2347,
    "BSTAR": 0.00045821,
    "MEAN_MOTION_DOT": 5.38e-05,
    "MEAN_MOTION_DDOT": 0.0,
    "TLE_LINE1": "1 64420U 25129J   25315.18759736  .00005380  00000+0  45821-3 0  9995",
    "TLE_LINE2": "2 64420  70.0022  13.3710 0003079 273.0993  86.9813 14.98341456 23472",
    "COMMENT": "Grouped by shell and plane from TLE"
  },
  {
    "OBJECT_NAME": "STARLINK-34498",
    "OBJECT_ID": "25129K",
    "EPOCH": "2025-11-11T07:24:08.578368",
    "MEAN_MOTION": 14.9833854,
    "ECCENTRICITY": 0.0003182,
    "INCLINATION": 70.0018,
    "RA_OF_ASC_NODE": 12.9956,
    "ARG_OF_PERICENTER": 272.2091,
    "MEAN_ANOMALY": 87.8704,
    "EPHEMERIS_TYPE": 0,
    "CLASSIFICATION_TYPE": "U",
    "NORAD_CAT_ID": 64421,
    "ELEMENT_SET_NO": 999,
    "REV_AT_EPOCH": 2355,
    "BSTAR": 0.00042542999999999997,
    "MEAN_MOTION_DOT": 4.988e-05,
    "MEAN_MOTION_DDOT": 0.0,
    "TLE_LINE1": "1 64421U 25129K   25315.30843262  .00004988  00000+0  42543-3 0  9999",
    "TLE_LINE2": "2 64421  70.0018  12.9956 0003182 272.2091  87.8704 14.98338540 23558",
    "COMMENT": "Grouped by shell and plane from TLE"
  },
  {
    "OBJECT_NAME": "STARLINK-34434",
    "OBJECT_ID": "25129L",
    "EPOCH": "2025-11-11T06:18:04.346784",
    "MEAN_MOTION": 14.98333869,
    "ECCENTRICITY": 0.0003573,
    "INCLINATION": 70.0018,
    "RA_OF_ASC_NODE": 13.2348,
    "ARG_OF_PERICENTER": 269.4481,
    "MEAN_ANOMALY": 90.6269,
    "EPHEMERIS_TYPE": 0,
    "CLASSIFICATION_TYPE": "U",
    "NORAD_CAT_ID": 64422,
    "ELEMENT_SET_NO": 999,
    "REV_AT_EPOCH": 2354,
    "BSTAR": 0.00065796,
    "MEAN_MOTION_DOT": 7.767e-05,
    "MEAN_MOTION_DDOT": 0.0,
    "TLE_LINE1": "1 64422U 25129L   25315.26255031  .00007767  00000+0  65796-3 0  9999",
    "TLE_LINE2": "2 64422  70.0018  13.2348 0003573 269.4481  90.6269 14.98333869 23549",
    "COMMENT": "Grouped by shell and plane from TLE"
  },
  {
    "OBJECT_NAME": "STARLINK-34467",
    "OBJECT_ID": "25129M",
    "EPOCH": "2025-11-11T07:06:08.244864",
    "MEAN_MOTION": 14.98343126,
    "ECCENTRICITY": 0.0003467,
    "INCLINATION": 70.002,
    "RA_OF_ASC_NODE": 12.9495,
    "ARG_OF_PERICENTER": 270.2689,
    "MEAN_ANOMALY": 89.8073,
    "EPHEMERIS_TYPE": 0,
    "CLASSIFICATION_TYPE": "U",
    "NORAD_CAT_ID": 64423,
    "ELEMENT_SET_NO": 999,
    "REV_AT_EPOCH": 2355,
    "BSTAR": 0.0011344,
    "MEAN_MOTION_DOT": 0.00013474,
    "MEAN_MOTION_DDOT": 0.0,
    "TLE_LINE1": "1 64423U 25129M   25315.29592876  .00013474  00000+0  11344-2 0  9995",
    "TLE_LINE2": "2 64423  70.0020  12.9495 0003467 270.2689  89.8073 14.98343126 23555",
    "COMMENT": "Grouped by shell and plane from TLE"
  },
  {
    "OBJECT_NAME": "STARLINK-34468",
    "OBJECT_ID": "25129N",
    "EPOCH": "2025-11-11T06:24:19.521504",
    "MEAN_MOTION": 14.98321724,
    "ECCENTRICITY": 0.0002583,
    "INCLINATION": 70.002,
    "RA_OF_ASC_NODE": 13.2491,
    "ARG_OF_PERICENTER": 266.4057,
    "MEAN_ANOMALY": 93.6807,
    "EPHEMERIS_TYPE": 0,
    "CLASSIFICATION_TYPE": "U",
    "NORAD_CAT_ID": 64424,
    "ELEMENT_SET_NO": 999,
    "REV_AT_EPOCH": 2354,
    "BSTAR": 0.0009057199999999999,
    "MEAN_MOTION_DOT": 0.00010728,
    "MEAN_MOTION_DDOT": 0.0,
    "TLE_LINE1": "1 64424U 25129N   25315.26689261  .00010728  00000+0  90572-3 0  9998",
    "TLE_LINE2": "2 64424  70.0020  13.2491 0002583 266.4057  93.6807 14.98321724 23547",
    "COMMENT": "Grouped by shell and plane from TLE"
  },
  {
    "OBJECT_NAME": "STARLINK-34452",
    "OBJECT_ID": "25129P",
    "EPOCH": "2025-11-11T06:48:18.643104",
    "MEAN_MOTION": 14.98348584,
    "ECCENTRICITY": 0.0003255,
    "INCLINATION": 70.0023,
    "RA_OF_ASC_NODE": 12.9023,
    "ARG_OF_PERICENTER": 272.0012,
    "MEAN_ANOMALY": 88.0775,
    "EPHEMERIS_TYPE": 0,
    "CLASSIFICATION_TYPE": "U",
    "NORAD_CAT_ID": 64425,
    "ELEMENT_SET_NO": 999,
    "REV_AT_EPOCH": 2355,
    "BSTAR": 0.00010729,
    "MEAN_MOTION_DOT": 1.188e-05,
    "MEAN_MOTION_DDOT": 0.0,
    "TLE_LINE1": "1 64425U 25129P   25315.28354911  .00001188  00000+0  10729-3 0  9998",
    "TLE_LINE2": "2 64425  70.0023  12.9023 0003255 272.0012  88.0775 14.98348584 23555",
    "COMMENT": "Grouped by shell and plane from TLE"
  },
  {
    "OBJECT_NAME": "STARLINK-34432",
    "OBJECT_ID": "25129Q",
    "EPOCH": "2025-11-11T07:12:07.253280",
    "MEAN_MOTION": 14.98334214,
    "ECCENTRICITY": 0.0003182,
    "INCLINATION": 70.0022,
    "RA_OF_ASC_NODE": 12.9571,
    "ARG_OF_PERICENTER": 269.4719,
    "MEAN_ANOMALY": 90.6076,
    "EPHEMERIS_TYPE": 0,
    "CLASSIFICATION_TYPE": "U",
    "NORAD_CAT_ID": 64426,
    "ELEMENT_SET_NO": 999,
    "REV_AT_EPOCH": 2349,
    "BSTAR": 0.00048084,
    "MEAN_MOTION_DOT": 5.65e-05,
    "MEAN_MOTION_DDOT": 0.0,
    "TLE_LINE1": "1 64426U 25129Q   25315.30008395  .00005650  00000+0  48084-3 0  9997",
    "TLE_LINE2": "2 64426  70.0022  12.9571 0003182 269.4719  90.6076 14.98334214 23497",
    "COMMENT": "Grouped by shell and plane from TLE"
  },
  {
    "OBJECT_NAME": "STARLINK-34480",
    "OBJECT_ID": "25129R",
    "EPOCH": "2025-11-11T06:48:06.325920",
    "MEAN_MOTION": 14.98329333,
    "ECCENTRICITY": 0.000354,
    "INCLINATION": 70.0019,
    "RA_OF_ASC_NODE": 12.8991,
    "ARG_OF_PERICENTER": 276.5875,
    "MEAN_ANOMALY": 83.4881,
    "EPHEMERIS_TYPE": 0,
    "CLASSIFICATION_TYPE": "U",
    "NORAD_CAT_ID": 64427,
    "ELEMENT_SET_NO": 999,
    "REV_AT_EPOCH": 2355,
    "BSTAR": 0.0017422000000000002,
    "MEAN_MOTION_DOT": 0.00020757,
    "MEAN_MOTION_DDOT": 0.0,
    "TLE_LINE1": "1 64427U 25129R   25315.28340655  .00020757  00000+0  17422-2 0  9999",
    "TLE_LINE2": "2 64427  70.0019  12.8991 0003540 276.5875  83.4881 14.98329333 23556",
    "COMMENT": "Grouped by shell and plane from TLE"
  },
  {
    "OBJECT_NAME": "STARLINK-34495",
    "OBJECT_ID": "25129S",
    "EPOCH": "2025-11-11T07:00:07.425504",
    "MEAN_MOTION": 14.98332155,
    "ECCENTRICITY": 0.0002997,
    "INCLINATION": 70.0019,
    "RA_OF_ASC_NODE": 12.9347,
    "ARG_OF_PERICENTER": 271.2183,
    "MEAN_ANOMALY": 88.8633,
    "EPHEMERIS_TYPE": 0,
    "CLASSIFICATION_TYPE": "U",
    "NORAD_CAT_ID": 64428,
    "ELEMENT_SET_NO": 999,
    "REV_AT_EPOCH": 2355,
    "BSTAR": 0.0011667,
    "MEAN_MOTION_DOT": 0.00013857,
    "MEAN_MOTION_DDOT": 0.0,
    "TLE_LINE1": "1 64428U 25129S   25315.29175261  .00013857  00000+0  11667-2 0  9998",
    "TLE_LINE2": "2 64428  70.0019  12.9347 0002997 271.2183  88.8633 14.98332155 23552",
    "COMMENT": "Grouped by shell and plane from TLE"
  },
  {
    "OBJECT_NAME": "STARLINK-34501",
    "OBJECT_ID": "25129T",
    "EPOCH": "2025-11-11T06:06:02.365920",
    "MEAN_MOTION": 14.98338844,
    "ECCENTRICITY": 0.000302,
    "INCLINATION": 70.0026,
    "RA_OF_ASC_NODE": 13.2043,
    "ARG_OF_PERICENTER": 269.7278,
    "MEAN_ANOMALY": 90.3535,
    "EPHEMERIS_TYPE": 0,
    "CLASSIFICATION_TYPE": "U",
    "NORAD_CAT_ID": 64429,
    "ELEMENT_SET_NO": 999,
    "REV_AT_EPOCH": 2354,
    "BSTAR": 0.00036895,
    "MEAN_MOTION_DOT": 4.313e-05,
    "MEAN_MOTION_DDOT": 0.0,
    "TLE_LINE1": "1 64429U 25129T   25315.25419405  .00004313  00000+0  36895-3 0  9994",
    "TLE_LINE2": "2 64429  70.0026  13.2043 0003020 269.7278  90.3535 14.98338844 23542",
    "COMMENT": "Grouped by shell and plane from TLE"
  }
]